{"type": "FeatureCollection", "features": [ {"type": "Feature", "properties": {"norad_id": 35060, "name": "COSMOS 2251 DEB", "group": "cosmos-2251-debris", "lat": 5.921997141796307, "lon": 39.024157788923596, "alt_km": 763.5218368129608, "timestamp": "2025-12-25T11:37:44.835361+00:00", "meta": {"OBJECT_NAME": "COSMOS 2251 DEB", "OBJECT_ID": "1993-036AHP", "EPOCH": "2025-12-23T23:50:58.864704", "MEAN_MOTION": 14.416228, "ECCENTRICITY": 0.00187381, "INCLINATION": 74.0364, "RA_OF_ASC_NODE": 223.4863, "ARG_OF_PERICENTER": 306.8479, "MEAN_ANOMALY": 53.0958, "EPHEMERIS_TYPE": 0, "CLASSIFICATION_TYPE": "U", "NORAD_CAT_ID": 35060, "ELEMENT_SET_NO": 999, "REV_AT_EPOCH": 87404, "BSTAR": 0.0002601881, "MEAN_MOTION_DOT": 8.22e-06, "MEAN_MOTION_DDOT": 0}, "tle": {"line1": "1 35060U 93036AHP 25357.99373686  .00000822  00000+0  26019-3 0  9990", "line2": "2 35060  74.0364 223.4863 0018738 306.8479  53.0958 14.41622800874043"}}, "geometry": {"type": "Point", "coordinates": [39.024157788923596, 5.921997141796307]}}, {"type": "Feature", "properties": {"norad_id": 35061, "name": "COSMOS 2251 DEB", "group": "cosmos-2251-debris", "lat": -2.1874635032399468, "lon": 101.73781867414183, "alt_km": 695.6292739547152, "timestamp": "2025-12-25T11:37:44.835371+00:00", "meta": {"OBJECT_NAME": "COSMOS 2251 DEB", "OBJECT_ID": "1993-036AHQ", "EPOCH": "2025-12-23T13:00:21.862944", "MEAN_MOTION": 14.67913326, "ECCENTRICITY": 0.00396373, "INCLINATION": 74.0464, "RA_OF_ASC_NODE": 284.8618, "ARG_OF_PERICENTER": 32.7091, "MEAN_ANOMALY": 327.652, "EPHEMERIS_TYPE": 0, "CLASSIFICATION_TYPE": "U", "NORAD_CAT_ID": 35061, "ELEMENT_SET_NO": 999, "REV_AT_EPOCH": 88733, "BSTAR": 0.00077438177, "MEAN_MOTION_DOT": 4.453e-05, "MEAN_MOTION_DDOT": 0}, "tle": {"line1": "1 35061U 93036AHQ 25357.54191971  .00004453  00000+0  77438-3 0  9992", "line2": "2 35061  74.0464 284.8618 0039637  32.7091 327.6520 14.67913326887335"}}, "geometry": {"type": "Point", "coordinates": [101.73781867414183, -2.1874635032399468]}}, {"type": "Feature", "properties": {"norad_id": 35062, "name": "COSMOS 2251 DEB", "group": "cosmos-2251-debris", "lat": -20.422721609281364, "lon": 64.29575822427365, "alt_km": 815.1864636058854, "timestamp": "2025-12-25T11:37:44.835381+00:00", "meta": {"OBJECT_NAME": "COSMOS 2251 DEB", "OBJECT_ID": "1993-036AHR", "EPOCH": "2025-12-20T22:03:28.302048", "MEAN_MOTION": 14.22993492, "ECCENTRICITY": 0.0126453, "INCLINATION": 74.0793, "RA_OF_ASC_NODE": 78.5797, "ARG_OF_PERICENTER": 75.845, "MEAN_ANOMALY": 285.6708, "EPHEMERIS_TYPE": 0, "CLASSIFICATION_TYPE": "U", "NORAD_CAT_ID": 35062, "ELEMENT_SET_NO": 999, "REV_AT_EPOCH": 85615, "BSTAR": 0.0011493, "MEAN_MOTION_DOT": 2.786e-05, "MEAN_MOTION_DDOT": 0}, "tle": {"line1": "1 35062U 93036AHR 25354.91907757  .00002786  00000+0  11493-2 0  9993", "line2": "2 35062  74.0793  78.5797 0126453  75.8450 285.6708 14.22993492856157"}}, "geometry": {"type": "Point", "coordinates": [64.29575822427365, -20.422721609281364]}}, {"type": "Feature", "properties": {"norad_id": 35065, "name": "COSMOS 2251 DEB", "group": "cosmos-2251-debris", "lat": -8.747790251288656, "lon": 168.02037172403826, "alt_km": 735.5735879219674, "timestamp": "2025-12-25T11:37:44.835391+00:00", "meta": {"OBJECT_NAME": "COSMOS 2251 DEB", "OBJECT_ID": "1993-036AHU", "EPOCH": "2025-12-19T06:12:25.656192", "MEAN_MOTION": 14.4574331, "ECCENTRICITY": 0.0020018, "INCLINATION": 74.0185, "RA_OF_ASC_NODE": 182.1668, "ARG_OF_PERICENTER": 306.5523, "MEAN_ANOMALY": 53.3791, "EPHEMERIS_TYPE": 0, "CLASSIFICATION_TYPE": "U", "NORAD_CAT_ID": 35065, "ELEMENT_SET_NO": 999, "REV_AT_EPOCH": 68445, "BSTAR": 0.00028971, "MEAN_MOTION_DOT": 1.002e-05, "MEAN_MOTION_DDOT": 0}, "tle": {"line1": "1 35065U 93036AHU 25353.25863028  .00001002  00000+0  28971-3 0  9994", "line2": "2 35065  74.0185 182.1668 0020018 306.5523  53.3791 14.45743310684450"}}, "geometry": {"type": "Point", "coordinates": [168.02037172403826, -8.747790251288656]}}, {"type": "Feature", "properties": {"norad_id": 35071, "name": "COSMOS 2251 DEB", "group": "cosmos-2251-debris", "lat": -18.57903438396174, "lon": 141.6656209598844, "alt_km": 535.6345233774982, "timestamp": "2025-12-25T11:37:44.835401+00:00", "meta": {"OBJECT_NAME": "COSMOS 2251 DEB", "OBJECT_ID": "1993-036AJA", "EPOCH": "2025-12-25T02:08:01.634784", "MEAN_MOTION": 15.03684095, "ECCENTRICITY": 0.0068543, "INCLINATION": 73.9325, "RA_OF_ASC_NODE": 148.0386, "ARG_OF_PERICENTER": 40.7776, "MEAN_ANOMALY": 319.8513, "EPHEMERIS_TYPE": 0, "CLASSIFICATION_TYPE": "U", "NORAD_CAT_ID": 35071, "ELEMENT_SET_NO": 999, "REV_AT_EPOCH": 67722, "BSTAR": 0.00076375, "MEAN_MOTION_DOT": 0.00010995, "MEAN_MOTION_DDOT": 0}, "tle": {"line1": "1 35071U 93036AJA 25359.08890781  .00010995  00000+0  76375-3 0  9996", "line2": "2 35071  73.9325 148.0386 0068543  40.7776 319.8513 15.03684095677229"}}, "geometry": {"type": "Point", "coordinates": [141.6656209598844, -18.57903438396174]}}, {"type": "Feature", "properties": {"norad_id": 35073, "name": "COSMOS 2251 DEB", "group": "cosmos-2251-debris", "lat": -24.937240085704886, "lon": -63.08961216515706, "alt_km": 564.9604714061952, "timestamp": "2025-12-25T11:37:44.835411+00:00", "meta": {"OBJECT_NAME": "COSMOS 2251 DEB", "OBJECT_ID": "1993-036AJC", "EPOCH": "2025-12-23T13:22:12.377280", "MEAN_MOTION": 15.01382354, "ECCENTRICITY": 0.00112511, "INCLINATION": 74.0027, "RA_OF_ASC_NODE": 308.5087, "ARG_OF_PERICENTER": 50.3654, "MEAN_ANOMALY": 309.8525, "EPHEMERIS_TYPE": 0, "CLASSIFICATION_TYPE": "U", "NORAD_CAT_ID": 35073, "ELEMENT_SET_NO": 999, "REV_AT_EPOCH": 67641, "BSTAR": 0.0032564954, "MEAN_MOTION_DOT": 0.00042271, "MEAN_MOTION_DDOT": 0}, "tle": {"line1": "1 35073U 93036AJC 25357.55708770  .00042271  00000+0  32565-2 0  9998", "line2": "2 35073  74.0027 308.5087 0011251  50.3654 309.8525 15.01382354676412"}}, "geometry": {"type": "Point", "coordinates": [-63.08961216515706, -24.937240085704886]}}, {"type": "Feature", "properties": {"norad_id": 35284, "name": "COSMOS 2251 DEB", "group": "cosmos-2251-debris", "lat": 60.73461982221739, "lon": -88.35144768439862, "alt_km": 761.8829403631753, "timestamp": "2025-12-25T11:37:44.835421+00:00", "meta": {"OBJECT_NAME": "COSMOS 2251 DEB", "OBJECT_ID": "1993-036AJN", "EPOCH": "2025-12-25T01:37:46.179840", "MEAN_MOTION": 14.38330465, "ECCENTRICITY": 0.0017215, "INCLINATION": 74.0484, "RA_OF_ASC_NODE": 241.7251, "ARG_OF_PERICENTER": 316.3958, "MEAN_ANOMALY": 112.0584, "EPHEMERIS_TYPE": 0, "CLASSIFICATION_TYPE": "U", "NORAD_CAT_ID": 35284, "ELEMENT_SET_NO": 999, "REV_AT_EPOCH": 65703, "BSTAR": 0.00014947, "MEAN_MOTION_DOT": 4.29e-06, "MEAN_MOTION_DDOT": 0}, "tle": {"line1": "1 35284U 93036AJN 25359.06789560  .00000429  00000+0  14947-3 0  9990", "line2": "2 35284  74.0484 241.7251 0017215 316.3958 112.0584 14.38330465657033"}}, "geometry": {"type": "Point", "coordinates": [-88.35144768439862, 60.73461982221739]}}, {"type": "Feature", "properties": {"norad_id": 35287, "name": "COSMOS 2251 DEB", "group": "cosmos-2251-debris", "lat": 27.053161348715246, "lon": 64.30848337109643, "alt_km": 781.5148185412008, "timestamp": "2025-12-25T11:37:44.835430+00:00", "meta": {"OBJECT_NAME": "COSMOS 2251 DEB", "OBJECT_ID": "1993-036AJR", "EPOCH": "2025-12-24T03:52:15.182976", "MEAN_MOTION": 14.36385545, "ECCENTRICITY": 0.00180686, "INCLINATION": 74.03, "RA_OF_ASC_NODE": 255.1485, "ARG_OF_PERICENTER": 349.3644, "MEAN_ANOMALY": 162.4382, "EPHEMERIS_TYPE": 0, "CLASSIFICATION_TYPE": "U", "NORAD_CAT_ID": 35287, "ELEMENT_SET_NO": 999, "REV_AT_EPOCH": 87056, "BSTAR": 0.00012586557, "MEAN_MOTION_DOT": 3.43e-06, "MEAN_MOTION_DDOT": 0}, "tle": {"line1": "1 35287U 93036AJR 25358.16128684  .00000343  00000+0  12587-3 0  9990", "line2": "2 35287  74.0300 255.1485 0018068 349.3644 162.4382 14.36385545870563"}}, "geometry": {"type": "Point", "coordinates": [64.30848337109643, 27.053161348715246]}}, {"type": "Feature", "properties": {"norad_id": 35288, "name": "COSMOS 2251 DEB", "group": "cosmos-2251-debris", "lat": -17.235834764817643, "lon": 175.63199569088266, "alt_km": 654.6016348529438, "timestamp": "2025-12-25T11:37:44.835440+00:00", "meta": {"OBJECT_NAME": "COSMOS 2251 DEB", "OBJECT_ID": "1993-036AJS", "EPOCH": "2025-12-23T06:18:10.717920", "MEAN_MOTION": 14.65565205, "ECCENTRICITY": 0.0039069, "INCLINATION": 73.9499, "RA_OF_ASC_NODE": 354.8064, "ARG_OF_PERICENTER": 226.8245, "MEAN_ANOMALY": 132.9657, "EPHEMERIS_TYPE": 0, "CLASSIFICATION_TYPE": "U", "NORAD_CAT_ID": 35288, "ELEMENT_SET_NO": 999, "REV_AT_EPOCH": 88032, "BSTAR": 0.0011220049, "MEAN_MOTION_DOT": 6.131e-05, "MEAN_MOTION_DDOT": 0}, "tle": {"line1": "1 35288U 93036AJS 25357.26262405  .00006131  00000+0  11220-2 0  9994", "line2": "2 35288  73.9499 354.8064 0039069 226.8245 132.9657 14.65565205880328"}}, "geometry": {"type": "Point", "coordinates": [175.63199569088266, -17.235834764817643]}}, {"type": "Feature", "properties": {"norad_id": 35290, "name": "COSMOS 2251 DEB", "group": "cosmos-2251-debris", "lat": 73.44839246876592, "lon": 109.09585652480139, "alt_km": 619.8181273966129, "timestamp": "2025-12-25T11:37:44.835451+00:00", "meta": {"OBJECT_NAME": "COSMOS 2251 DEB", "OBJECT_ID": "1993-036AJU", "EPOCH": "2025-12-24T09:17:55.218624", "MEAN_MOTION": 14.80672096, "ECCENTRICITY": 0.00012182, "INCLINATION": 74.005, "RA_OF_ASC_NODE": 36.4274, "ARG_OF_PERICENTER": 184.9871, "MEAN_ANOMALY": 175.1294, "EPHEMERIS_TYPE": 0, "CLASSIFICATION_TYPE": "U", "NORAD_CAT_ID": 35290, "ELEMENT_SET_NO": 999, "REV_AT_EPOCH": 88130, "BSTAR": 0.0018442179, "MEAN_MOTION_DOT": 0.00014174, "MEAN_MOTION_DDOT": 0}, "tle": {"line1": "1 35290U 93036AJU 25358.38744466  .00014174  00000+0  18442-2 0  9992", "line2": "2 35290  74.0050  36.4274 0001218 184.9871 175.1294 14.80672096881305"}}, "geometry": {"type": "Point", "coordinates": [109.09585652480139, 73.44839246876592]}}]}